0 NOAA 12
1 21263U 91032A   14044.48873738  .00000080  00000-0  52130-4 0  1658
2 21263 098.6761 072.6897 0013124 234.4734 226.9558 14.25625859182937
